*******************************************************************************
Ephemeris / WWW_USER Mon Mar 10 14:36:24 2025 Pasadena, USA      / Horizons    
*******************************************************************************
Target body name: 468861 (2013 LU28)              {source: JPL#36}
Center body name: Earth (399)                     {source: DE441}
Center-site name: Mauna Kea
*******************************************************************************
Start time      : A.D. 2018-Dec-24 03:59:00.0000 UT      
Stop  time      : A.D. 2018-Dec-24 16:43:00.0000 UT      
Step-size       : 1 minutes
*******************************************************************************
Target pole/equ : undefined
Target radii    : undefined                                                    
Center geodetic : 204.5278, 19.8260847, 4.21024   {E-lon(deg),Lat(deg),Alt(km)}
Center cylindric: 204.5278, 6006.35451, 2151.0229 {E-lon(deg),Dxy(km),Dz(km)}
Center pole/equ : ITRF93                          {East-longitude positive}
Center radii    : 6378.137, 6378.137, 6356.752 km {Equator_a, b, pole_c}       
Target primary  : Sun
Vis. interferer : MOON (R_eq= 1737.400) km        {source: DE441}
Rel. light bend : Sun                             {source: DE441}
Rel. lght bnd GM: 1.3271E+11 km^3/s^2                                          
Small-body perts: Yes                             {source: SB441-N16}
Atmos refraction: NO (AIRLESS)
RA format       : HMS
Time format     : CAL 
Calendar mode   : Mixed Julian/Gregorian
RTS-only print  : NO       
EOP file        : eop.250307.p250603                                           
EOP coverage    : DATA-BASED 1962-JAN-20 TO 2025-MAR-07. PREDICTS-> 2025-JUN-02
Units conversion: 1 au= 149597870.700 km, c= 299792.458 km/s, 1 day= 86400.0 s 
Table cut-offs 1: Elevation (-90.0deg=NO ),Airmass (>38.000=NO), Daylight (YES)
Table cut-offs 2: Solar elongation (  0.0,180.0=NO ),Local Hour Angle( 0.0=NO )
Table cut-offs 3: RA/DEC angular rate (     0.0=NO )                           
*******************************************************************************
Initial IAU76/J2000 heliocentric ecliptic osculating elements (au, days, deg.):
  EPOCH=  2459491.5 ! 2021-Oct-04.00 (TDB)         Residual RMS= .14077        
   EC= .9545524767334098   QR= 8.741840911970645   TP= 2460480.7801673855      
   OM= 275.9923561772391   W=  152.9171912923278   IN= 125.3473013584344       
  Equivalent ICRF heliocentric cartesian coordinates (au, au/d):
   X=-6.020062670108302E+00  Y=-1.182282064265113E+00  Z= 8.330249486138040E+00
  VX= 2.086988006100027E-03 VY= 7.079392581348984E-03 VZ=-1.092497303529149E-03
Asteroid physical parameters (km, seconds, rotational period in hours):        
   GM= n.a.                RAD= n.a.               ROTPER= n.a.                
   H= 8.24                 G= .150                 B-V= n.a.                   
                           ALBEDO= n.a.            STYP= n.a.                  
*******************************************************************************
 Date__(UT)__HR:MN     R.A._________(ICRF)_________DEC
******************************************************
$$SOE
 2018-Dec-24 03:59 C   15 21 03.176190 +35 05 31.41037
 2018-Dec-24 04:00 C   15 21 03.184270 +35 05 31.51403
 2018-Dec-24 04:01 C   15 21 03.192351 +35 05 31.61770
 2018-Dec-24 04:02 C   15 21 03.200433 +35 05 31.72138
 2018-Dec-24 04:03 C   15 21 03.208515 +35 05 31.82506
 2018-Dec-24 04:04 C   15 21 03.216598 +35 05 31.92874
 2018-Dec-24 04:05 C   15 21 03.224681 +35 05 32.03243
 2018-Dec-24 04:06 C   15 21 03.232765 +35 05 32.13613
 2018-Dec-24 04:07 C   15 21 03.240850 +35 05 32.23983
 2018-Dec-24 04:08 C   15 21 03.248935 +35 05 32.34354
 2018-Dec-24 04:09 C   15 21 03.257021 +35 05 32.44725
 2018-Dec-24 04:10 C   15 21 03.265108 +35 05 32.55097
 2018-Dec-24 04:11 C   15 21 03.273195 +35 05 32.65470
 2018-Dec-24 04:12 C   15 21 03.281283 +35 05 32.75843
 2018-Dec-24 04:13 C   15 21 03.289372 +35 05 32.86216
 2018-Dec-24 04:14 N   15 21 03.297461 +35 05 32.96591
 2018-Dec-24 04:15 N   15 21 03.305550 +35 05 33.06965
 2018-Dec-24 04:16 N   15 21 03.313641 +35 05 33.17341
 2018-Dec-24 04:17 N   15 21 03.321731 +35 05 33.27717
 2018-Dec-24 04:18 N   15 21 03.329823 +35 05 33.38093
 2018-Dec-24 04:19 N   15 21 03.337915 +35 05 33.48470
 2018-Dec-24 04:20 N   15 21 03.346008 +35 05 33.58848
 2018-Dec-24 04:21 N   15 21 03.354101 +35 05 33.69226
 2018-Dec-24 04:22 N   15 21 03.362195 +35 05 33.79605
 2018-Dec-24 04:23 N   15 21 03.370289 +35 05 33.89985
 2018-Dec-24 04:24 N   15 21 03.378384 +35 05 34.00365
 2018-Dec-24 04:25 N   15 21 03.386480 +35 05 34.10745
 2018-Dec-24 04:26 N   15 21 03.394576 +35 05 34.21127
 2018-Dec-24 04:27 N   15 21 03.402673 +35 05 34.31509
 2018-Dec-24 04:28 N   15 21 03.410770 +35 05 34.41891
 2018-Dec-24 04:29 N   15 21 03.418868 +35 05 34.52274
 2018-Dec-24 04:30 N   15 21 03.426966 +35 05 34.62658
 2018-Dec-24 04:31 N   15 21 03.435065 +35 05 34.73042
 2018-Dec-24 04:32 N   15 21 03.443165 +35 05 34.83427
 2018-Dec-24 04:33 N   15 21 03.451265 +35 05 34.93812
 2018-Dec-24 04:34 N   15 21 03.459366 +35 05 35.04199
 2018-Dec-24 04:35 N   15 21 03.467467 +35 05 35.14585
 2018-Dec-24 04:36 N   15 21 03.475569 +35 05 35.24973
 2018-Dec-24 04:37 N   15 21 03.483671 +35 05 35.35361
 2018-Dec-24 04:38 N   15 21 03.491774 +35 05 35.45749
 2018-Dec-24 04:39 N   15 21 03.499877 +35 05 35.56138
 2018-Dec-24 04:40 N   15 21 03.507981 +35 05 35.66528
 2018-Dec-24 04:41 A   15 21 03.516086 +35 05 35.76919
 2018-Dec-24 04:42 A   15 21 03.524191 +35 05 35.87310
 2018-Dec-24 04:43 A   15 21 03.532296 +35 05 35.97702
 2018-Dec-24 04:44 A   15 21 03.540402 +35 05 36.08094
 2018-Dec-24 04:45 A   15 21 03.548509 +35 05 36.18487
 2018-Dec-24 04:46 A   15 21 03.556616 +35 05 36.28881
 2018-Dec-24 04:47 A   15 21 03.564723 +35 05 36.39275
 2018-Dec-24 04:48 A   15 21 03.572832 +35 05 36.49670
 2018-Dec-24 04:49 A   15 21 03.580940 +35 05 36.60066
 2018-Dec-24 04:50 A   15 21 03.589049 +35 05 36.70462
 2018-Dec-24 04:51 A   15 21 03.597159 +35 05 36.80859
 2018-Dec-24 04:52 A   15 21 03.605269 +35 05 36.91256
 2018-Dec-24 04:53 A   15 21 03.613380 +35 05 37.01654
 2018-Dec-24 04:54 A   15 21 03.621491 +35 05 37.12053
 2018-Dec-24 04:55 A   15 21 03.629603 +35 05 37.22453
 2018-Dec-24 04:56 A   15 21 03.637715 +35 05 37.32853
 2018-Dec-24 04:57 A   15 21 03.645827 +35 05 37.43254
 2018-Dec-24 04:58 A   15 21 03.653941 +35 05 37.53655
 2018-Dec-24 04:59 A   15 21 03.662054 +35 05 37.64057
 2018-Dec-24 05:00 A   15 21 03.670168 +35 05 37.74460
 2018-Dec-24 05:01 A   15 21 03.678283 +35 05 37.84863
 2018-Dec-24 05:02 A   15 21 03.686398 +35 05 37.95268
 2018-Dec-24 05:03 A   15 21 03.694513 +35 05 38.05672
 2018-Dec-24 05:04 A   15 21 03.702629 +35 05 38.16078
 2018-Dec-24 05:05 A   15 21 03.710746 +35 05 38.26484
 2018-Dec-24 05:06 A   15 21 03.718862 +35 05 38.36891
 2018-Dec-24 05:07 A   15 21 03.726980 +35 05 38.47298
 2018-Dec-24 05:08  m  15 21 03.735098 +35 05 38.57706
 2018-Dec-24 05:09  m  15 21 03.743216 +35 05 38.68115
 2018-Dec-24 05:10  m  15 21 03.751334 +35 05 38.78525
 2018-Dec-24 05:11  m  15 21 03.759453 +35 05 38.88935
 2018-Dec-24 05:12  m  15 21 03.767573 +35 05 38.99346
 2018-Dec-24 05:13  m  15 21 03.775693 +35 05 39.09758
 2018-Dec-24 05:14  m  15 21 03.783813 +35 05 39.20170
 2018-Dec-24 05:15  m  15 21 03.791934 +35 05 39.30583
 2018-Dec-24 05:16  m  15 21 03.800056 +35 05 39.40996
 2018-Dec-24 05:17  m  15 21 03.808177 +35 05 39.51411
 2018-Dec-24 05:18  m  15 21 03.816299 +35 05 39.61826
 2018-Dec-24 05:19  m  15 21 03.824422 +35 05 39.72241
 2018-Dec-24 05:20  m  15 21 03.832545 +35 05 39.82658
 2018-Dec-24 05:21  m  15 21 03.840668 +35 05 39.93075
 2018-Dec-24 05:22  m  15 21 03.848792 +35 05 40.03493
 2018-Dec-24 05:23  m  15 21 03.856916 +35 05 40.13911
 2018-Dec-24 05:24  m  15 21 03.865041 +35 05 40.24331
 2018-Dec-24 05:25  m  15 21 03.873166 +35 05 40.34751
 2018-Dec-24 05:26  m  15 21 03.881291 +35 05 40.45171
 2018-Dec-24 05:27  m  15 21 03.889417 +35 05 40.55593
 2018-Dec-24 05:28  m  15 21 03.897543 +35 05 40.66015
 2018-Dec-24 05:29  m  15 21 03.905669 +35 05 40.76437
 2018-Dec-24 05:30  m  15 21 03.913796 +35 05 40.86861
 2018-Dec-24 05:31  m  15 21 03.921923 +35 05 40.97285
 2018-Dec-24 05:32  m  15 21 03.930051 +35 05 41.07710
 2018-Dec-24 05:33  m  15 21 03.938179 +35 05 41.18136
 2018-Dec-24 05:34  m  15 21 03.946307 +35 05 41.28562
 2018-Dec-24 05:35  m  15 21 03.954436 +35 05 41.38989
 2018-Dec-24 05:36  m  15 21 03.962565 +35 05 41.49417
 2018-Dec-24 05:37  m  15 21 03.970695 +35 05 41.59845
 2018-Dec-24 05:38  m  15 21 03.978825 +35 05 41.70275
 2018-Dec-24 05:39  m  15 21 03.986955 +35 05 41.80704
 2018-Dec-24 05:40  m  15 21 03.995085 +35 05 41.91135
 2018-Dec-24 05:41  m  15 21 04.003216 +35 05 42.01567
 2018-Dec-24 05:42  m  15 21 04.011347 +35 05 42.11999
 2018-Dec-24 05:43  m  15 21 04.019479 +35 05 42.22432
 2018-Dec-24 05:44  m  15 21 04.027611 +35 05 42.32865
 2018-Dec-24 05:45  m  15 21 04.035743 +35 05 42.43299
 2018-Dec-24 05:46  m  15 21 04.043875 +35 05 42.53735
 2018-Dec-24 05:47  m  15 21 04.052008 +35 05 42.64170
 2018-Dec-24 05:48  m  15 21 04.060141 +35 05 42.74607
 2018-Dec-24 05:49  m  15 21 04.068275 +35 05 42.85044
 2018-Dec-24 05:50  m  15 21 04.076408 +35 05 42.95482
 2018-Dec-24 05:51  m  15 21 04.084542 +35 05 43.05921
 2018-Dec-24 05:52  m  15 21 04.092677 +35 05 43.16360
 2018-Dec-24 05:53  m  15 21 04.100811 +35 05 43.26801
 2018-Dec-24 05:54  m  15 21 04.108946 +35 05 43.37242
 2018-Dec-24 05:55  m  15 21 04.117082 +35 05 43.47683
 2018-Dec-24 05:56  m  15 21 04.125217 +35 05 43.58126
 2018-Dec-24 05:57  m  15 21 04.133353 +35 05 43.68569
 2018-Dec-24 05:58  m  15 21 04.141489 +35 05 43.79013
 2018-Dec-24 05:59  m  15 21 04.149625 +35 05 43.89458
 2018-Dec-24 06:00  m  15 21 04.157762 +35 05 43.99903
 2018-Dec-24 06:01  m  15 21 04.165899 +35 05 44.10349
